{"type":"Topology","arcs":[[[23436,62757],[898,-1109],[315,-383],[661,-828],[803,-989],[118,-155],[1104,-1361],[950,19],[926,-918],[876,-863],[312,26],[119,-269],[162,-33],[69,-77],[175,-10],[62,-60],[-26,-199],[103,-155]],[[31063,55393],[26,-80],[165,-43],[113,11],[148,-179],[193,-117],[126,1],[409,-240]],[[32243,54746],[-176,-88],[-83,-164],[-788,-1011],[-732,-579],[-730,-151],[-139,-136],[202,-660],[-359,-659],[-442,-762],[-33,-242],[270,-133],[130,-90],[20,-329],[-146,-112],[-20,114],[-211,-73],[-61,-131],[175,-70],[124,-155],[114,-77],[75,-140],[183,-38],[-5,-160],[156,-34],[55,-243],[-58,-171],[-99,-96],[-369,-189]],[[29296,48167],[-230,272],[-426,241],[-231,-43],[-16,-48],[191,-71],[24,-171],[-54,-22],[-582,-130],[-102,-584],[-49,-110],[-101,-557],[-272,19],[90,-551],[-249,-167],[-503,157],[-133,148],[-439,114],[-92,278],[-434,-11],[0,110],[-57,181],[-256,85],[-136,-272],[76,-50],[364,-323],[144,-110],[15,-105],[-94,-230],[-115,-110],[-160,-269],[-247,-175],[-2,-66],[-170,-1],[-179,286],[-74,-31],[-217,160],[-377,-471],[-219,-246],[-113,-97],[-138,164],[-71,16],[-98,-114],[-68,-10],[-1,-505],[-230,-308],[-600,-109],[-14,315],[87,159],[-322,381],[-134,98],[-59,159],[4,183],[-287,-2],[-137,22],[150,225],[-115,-18],[-228,-97]],[[21610,45756],[-4,125],[-112,143],[-248,26],[-338,242],[-497,-7],[-261,216]],[[20150,46501],[38,230],[213,38],[43,146],[-92,63],[76,69],[-66,86],[22,96],[400,-228],[22,489],[190,329],[-31,215]],[[20965,48034],[960,-1],[352,76],[3,105],[191,160],[174,100],[-27,212],[-136,210],[55,196],[19,245],[-33,140],[125,234],[-32,166],[-134,34],[-504,213],[-177,182],[77,116],[-94,189],[-26,188],[-57,115],[-179,229],[3,111],[-56,70],[-170,69],[-12,99],[-117,116],[-27,251],[99,131],[28,217],[-177,121],[-26,181],[157,232],[-58,249],[265,91],[-20,66],[101,60],[38,89],[-45,180],[-105,111],[-31,89],[63,60],[50,226],[96,226],[-37,145],[88,103],[-26,122],[46,115],[-215,151],[-19,169],[37,194],[-12,153],[130,135],[-80,315],[103,137],[-42,60],[40,135],[-58,74],[127,216],[-7,87],[137,47],[207,135],[-22,75],[75,93],[-27,139],[145,215],[188,105],[-18,83],[96,198],[-17,240],[14,197],[-33,211],[-69,156],[78,161],[-40,251],[87,130],[-60,30],[-90,150],[28,298]],[[22332,59413],[34,90],[-155,199],[2,101],[68,145],[119,137],[-9,81],[66,150],[-20,177],[21,119],[153,112],[46,95],[-48,77],[116,182],[173,177],[115,14],[122,131],[23,133],[72,17],[56,183],[26,189],[99,91],[-56,233],[26,288],[-47,113],[102,110]],[[20955,40524],[-1086,-250],[-1292,-315],[366,-764],[663,-415],[381,-119],[304,-30],[139,-70],[-313,-292],[-141,-76],[-120,0],[-155,-71],[-123,-150],[24,-51],[-179,-124],[-108,-179],[-130,-9],[-61,-111],[-139,-38],[-70,-73],[-21,-168],[42,-106],[-53,-113],[-210,-55],[-86,-76],[-251,-33],[-124,-131],[-165,52],[-278,-75],[-231,-163],[-28,-67],[-163,-38],[-124,-85],[-556,-242],[-89,33],[-490,314],[-1446,946],[-874,165]],[[13768,37545],[-12,72],[77,95],[87,18],[-44,216],[128,28],[159,-79],[587,512],[-536,918],[13,71],[284,102],[-197,293],[-11,169],[109,159],[-74,85]],[[14338,40204],[61,-10],[50,170],[63,59],[132,-7],[48,-87],[3,-155],[-61,-107],[-23,-138],[159,-95],[286,35],[117,-81],[93,37],[242,-3],[340,66],[207,77],[35,68],[375,233],[-29,142],[-166,72],[-215,170],[13,114],[119,156],[-108,119],[16,100],[-117,74],[46,106],[-172,64],[-23,57],[99,103],[381,65],[44,75],[-118,36],[237,335],[21,92],[254,47],[97,-36],[234,65],[120,-12],[112,-62],[305,33],[189,138],[194,-27],[77,-90],[-130,-116],[193,15],[5,-537],[80,-11],[217,108],[105,128],[178,4],[116,57],[112,-10],[111,179],[87,85],[126,50],[73,114],[172,117]],[[19520,42385],[13,3],[916,-1181],[506,-683]],[[13844,55141],[-63,-263],[146,-92],[27,-99],[-38,-93],[101,-106],[108,-7],[123,-175],[159,-64],[32,-285],[-237,-52],[-337,-183],[-103,99],[-148,-99],[-147,95],[-144,32],[-343,-36],[-196,-134],[-55,22],[-97,-152],[90,-146],[-21,-83],[-102,-42],[-117,-125],[-128,-4],[-87,49],[-164,-78],[-198,18],[-74,-104],[-185,-76],[-145,-410],[-217,-97],[-185,-160],[137,-99],[-343,-123],[-172,-122],[-197,-233],[-147,-40],[-93,-171],[-170,-117],[-309,-52],[-83,-157],[-166,-24],[33,-90],[-153,-146],[-282,-99],[-147,22],[-7,78],[-167,-33],[-69,-138],[-97,77],[-122,-68],[-98,-181],[-82,61],[3,199],[-52,46],[-168,11],[-160,121],[-160,-82],[-80,-182],[-192,62],[-110,84],[-131,-7],[-20,82],[-162,181],[-165,-61],[-95,-89],[-187,-11],[-148,-49],[-219,122],[-153,0],[-173,-78]],[[5993,50985],[-74,243],[47,62],[191,21],[53,50],[-224,324],[-108,52],[-167,169],[100,175],[-78,120],[-1,166],[71,1],[90,344],[133,80],[296,92],[-105,216],[78,81],[-130,325],[334,40],[37,98],[-55,150],[-84,65],[-146,43],[-104,-67],[-139,48],[-135,135],[-169,-14],[-70,42]],[[5634,54046],[92,63],[97,133],[86,56],[130,2],[242,91],[-82,176],[99,132],[136,112],[210,51],[40,178],[56,101],[-7,118],[175,125],[190,289],[36,193],[84,222],[-14,260],[71,339],[129,279],[127,102],[82,173],[123,68],[548,-44],[67,478]],[[8351,57743],[367,-381],[273,-176],[271,-96],[115,-7],[-133,-265],[65,-40],[430,-477],[144,-138],[439,-479],[77,-55],[291,-132],[232,23],[196,-176],[-178,-170],[111,-203],[-1,-115],[105,-120],[97,-244],[-32,-146],[769,187],[730,296],[58,-14],[103,158],[312,41],[-12,49],[277,65],[52,-34],[335,47]],[[5993,50985],[-23,-65],[-161,-8],[-110,-43],[-42,-156],[-254,-145],[188,-188],[213,-28],[391,-178],[182,-137],[-88,-52],[-200,-49],[-180,-108],[-23,-317],[-135,-107]],[[5751,49404],[-65,-48],[-454,69],[-168,-19],[-518,18],[-125,-27],[-233,34],[-137,-191],[-381,-58],[4,-102],[-64,-69],[-186,73],[-46,101],[-108,97],[-177,42],[-10,-97],[-138,-199],[-194,-193],[-182,-77],[-16,-243],[-85,-132],[-53,-187],[79,-94],[16,-268],[-17,-140],[-150,2],[-113,-98],[-228,-76],[19,-136],[-59,-85],[-337,-954],[-157,-180],[-163,-93],[-115,10],[-725,-3]],[[465,46081],[-462,1252],[-3,100],[1362,1445],[46,134],[195,75],[15,152],[77,23],[52,138],[97,43],[-26,83],[213,36],[320,226],[114,182],[18,122],[-106,349],[-165,137],[24,168],[-16,138],[46,51],[324,207],[-18,249],[63,99],[-67,37],[112,167],[12,178],[145,270],[165,30],[188,147],[203,40],[185,199],[204,-8],[69,58],[188,-34],[79,61],[108,-32],[174,87],[157,25],[17,195],[37,57],[-44,111],[121,36],[329,173],[-77,201],[47,319],[54,113],[241,44],[153,57],[199,25]],[[20965,48034],[-169,151],[-73,12],[-11,119],[-160,-80],[-530,-14],[225,312],[-48,97],[-271,-50],[-111,62],[-132,184],[110,77],[-45,58],[106,145],[59,159],[-106,200],[173,4],[-34,112],[-146,184],[-160,73],[-12,63],[-158,110],[22,89],[180,78],[-67,65],[96,117],[-64,45],[-73,163],[-45,232],[-138,63],[21,506],[148,473],[75,353],[-253,334],[-339,384],[-260,345],[56,68],[282,4],[812,-13],[-142,245],[92,321],[81,67],[-71,92],[-32,428],[-208,49],[123,307],[-61,219],[-393,2],[156,235],[-658,73],[-18,64],[74,236],[-437,64],[-99,-78],[-225,76]],[[18107,55718],[-197,30],[-52,256],[157,60],[-110,249],[233,51],[-2,95],[-613,171],[-536,260],[-350,111],[-306,411],[-195,14],[-299,376],[-219,240],[-113,200]],[[15505,58242],[1069,-406],[333,-110],[770,-283],[403,137],[79,62],[1188,773],[518,347],[555,337],[178,-6],[120,58],[136,-2],[110,-83],[229,-44],[318,219],[546,153],[275,19]],[[50338,42105],[-68,-174],[-242,-278],[-365,-621],[69,-247],[-56,-217],[236,-145],[-13,-35],[269,-232],[-267,-181],[-94,-27],[16,-348],[111,-50],[-66,-182],[120,-70],[97,-171],[-28,-107],[-171,-218],[-109,-54],[20,-128],[-118,-31],[-46,-149],[61,-87],[-329,-52],[-168,2]],[[49197,38303],[-167,-8],[-38,64],[-127,11],[-99,-97],[-63,125],[-112,-147],[-105,-58],[-202,16],[-185,-28],[-177,448],[-123,39],[-104,-55],[-212,-10],[-117,-79],[-211,-64],[8,-133],[-142,-279],[-147,-105],[-163,57],[-87,-32],[-135,56],[-8,-103],[-161,-51],[-137,-5],[-124,-51],[-95,-175],[-155,14],[-111,-37],[-79,56],[-108,-93],[-161,-41],[-65,-72],[40,-104],[-70,-71],[-146,-24],[-37,137],[-377,47],[-168,130],[38,86],[-196,63],[-145,2],[-45,74],[-142,10],[-78,-41],[-189,78],[-255,33],[-334,103],[-279,22],[-151,-16],[-128,85],[-164,329],[-160,91],[-93,101],[-231,-39]],[[41975,38562],[-5,85],[118,227],[156,-7],[325,61],[49,-104],[90,-59],[249,-71],[152,21],[12,80],[144,-20],[218,110],[231,50],[180,2],[290,166],[246,-26],[116,89],[242,-73],[-5,99],[-185,136],[34,138],[-63,91],[36,177],[-68,184],[71,85],[15,105],[95,71],[16,78],[-142,151],[91,196],[-66,36],[-62,172],[-132,29],[-198,119],[-22,137],[-151,99],[-102,167],[54,75],[-74,139],[35,100],[17,252],[-50,250],[-530,987],[-924,1696]],[[42478,44862],[2390,-1616],[24,-32],[628,-431],[125,-61],[81,19],[409,-204],[148,-5],[119,-55],[106,10],[191,-195],[190,-131],[248,-48],[165,-114],[257,-57],[52,-53],[166,-17],[190,53],[146,-38],[337,26],[384,207],[176,200],[181,17],[63,98],[211,120],[-21,123],[77,39],[26,154],[154,73],[119,-96],[-68,-123],[83,-43],[-66,-244],[113,-19],[11,-80],[106,-99],[170,-18],[-16,-80],[185,-37]],[[88571,50935],[8,-1587],[0,-2979],[0,-3303],[-1,-4937],[1444,-1544],[1391,-1503],[4255,-4536],[35,-49],[-2,-578],[-660,-45]],[[95041,29874],[-2147,-151],[-2183,-146],[-1085,-75],[-738,-57],[-1565,-110],[-694,-272],[-1207,-463],[-63,-43],[-267,-81],[-2414,-924],[-264,-104],[-718,-243],[-495,-159],[-1299,-476],[-1024,-386],[-68,-14]],[[78810,26170],[-97,225],[-105,130],[-4,207],[-111,171],[35,308],[-33,275],[21,321],[-51,139],[-204,207],[-51,83],[-24,265],[-56,372],[155,313],[-12,114],[-105,142],[-41,166],[24,227],[0,268],[-35,191],[-62,172],[-112,158],[-194,147],[-119,132],[-97,214],[-56,259],[-208,300],[-80,407],[-246,837],[-24,153],[-130,202],[-11,194],[83,257],[3,244],[-32,32],[-198,464],[-350,387],[-173,388],[-348,506],[-277,472],[-151,187],[56,245],[-18,137],[-166,296],[-40,133],[-101,145],[-102,78],[9,212],[-54,431],[-137,163],[-137,314],[-204,241],[67,219],[-31,102],[-101,132],[0,146],[-41,119],[-116,129],[-41,202],[-81,114],[-159,130],[-37,100],[19,177],[-140,201],[-472,229],[-171,116],[-134,42],[-230,-24],[-40,127],[-112,131],[-96,46],[-70,103],[-145,115],[-740,1],[-30,207],[61,141],[-113,87],[-11,180],[4,1108],[-252,164],[-120,103],[-180,243],[-205,139],[-262,93],[-158,245],[-257,156],[-252,205],[-560,337],[-190,40],[-246,-3],[-97,32],[-205,162],[-321,114],[-407,235],[-219,28],[-228,-36],[-478,-11],[-304,70],[-380,-50],[-133,7],[-263,83],[-231,50],[-146,98],[-558,553],[-298,77],[-278,-23],[-144,33],[-279,-5],[-235,-33],[-297,-68],[-214,-101],[-235,-209],[-260,41],[-189,-33],[-212,-83],[-208,5],[-116,38],[-285,-21],[-733,228],[-169,2],[-173,-36]],[[60503,46050],[-2,92],[-82,69],[22,92],[-77,81],[30,91],[-106,293],[-37,428],[40,126],[-25,204],[30,188],[78,130],[236,213],[-1,109],[-120,358],[-540,1684],[-181,577],[-144,323],[-19,141],[-138,66],[-55,90],[207,-10],[169,20],[118,-37],[92,62],[156,-17],[29,134],[148,-58],[94,41],[135,-7],[134,-106],[248,143],[91,131],[90,30],[115,113],[111,168],[98,85],[184,66],[221,115],[182,23],[48,-55],[325,16],[306,96],[157,205],[170,8],[156,-43],[190,-14],[85,36],[303,-10],[58,162],[75,0],[17,134],[58,98],[335,209],[233,-74],[313,16],[65,91],[146,19],[225,-30],[126,29],[61,139],[335,144],[84,317],[205,320],[235,214],[168,199],[91,173],[164,163],[189,132],[394,321],[218,193],[279,125],[243,134],[505,174],[773,219],[56,52]],[[69425,56213],[79,-90],[112,-42],[164,-164],[52,-105],[70,-273],[249,-406],[165,-331],[192,-488],[72,-226],[83,-111],[38,-143],[124,-124],[169,-233],[104,-63],[48,-92],[178,-196],[400,-272],[107,-254],[120,-160],[131,-120],[188,-240],[425,-352],[103,-165],[179,-85],[200,-60],[161,-161],[321,-111],[248,-9],[390,-59],[52,-60],[192,-108],[223,32],[193,-7],[499,-326],[437,-199],[372,-99],[428,-30],[188,-36],[546,-298],[289,-178],[360,-144],[343,-234],[376,-343],[340,-230],[267,-122],[269,-84],[354,-146],[308,-152],[395,-8],[152,-20],[269,-118],[79,-5],[262,64],[328,-47],[284,9],[261,109],[142,-30],[70,138],[130,126],[194,64],[309,-112],[271,-7],[157,110],[168,58],[471,5],[411,247],[30,136],[118,51],[127,167],[124,243],[287,83],[241,195],[243,87],[539,110],[240,34],[254,67],[349,151],[390,304],[357,140],[195,106],[227,63],[164,101]],[[13740,42486],[89,-64],[27,-138]],[[13856,42284],[-281,-184],[-380,-122],[-334,-222],[-433,-171],[-307,-55],[-277,-165]],[[11844,41365],[-84,-64],[-435,-88],[-459,-152],[-147,9],[-204,-229],[-145,-26],[-151,22],[-203,-14],[-43,-106],[-91,-62],[-60,-128],[-152,-136],[-333,-23],[-193,-288],[-75,-261],[-31,-22]],[[9038,39797],[-98,56],[-222,54],[-253,1],[-96,-82],[-286,-71],[10,-69],[-175,-148],[-136,-153],[25,-259],[-54,-119],[-172,-161],[-410,-299],[-42,-128],[-116,-167],[-108,-209],[-4,-243],[-448,271],[-387,162],[-172,-252],[-141,-20],[-43,-56],[-256,-20],[-145,-85],[-200,-29],[-124,97],[-134,161],[-215,148],[-318,32],[-264,302],[-44,83],[-242,147],[-176,246],[-120,-37],[-257,-165],[-207,-39],[-144,-103],[-275,-6],[-86,-38],[-309,-31],[-100,-204],[-1923,4]],[[171,38368],[-19,606],[-18,145],[-22,580],[-27,424],[-24,594],[38,156],[53,854],[100,470],[196,796]],[[448,42993],[3285,0],[371,-2],[344,-709],[130,-128],[190,-55],[154,10],[173,66],[1281,851],[766,358]],[[7142,43384],[591,278],[2185,137],[614,-317],[80,-228],[104,15],[237,-139],[-61,-80],[97,-135],[96,-60],[156,-23],[147,-150],[38,-167],[169,-44],[232,6],[256,-53],[207,37],[260,77],[-18,-171],[151,11],[54,-98],[360,-39],[197,58],[80,-43],[269,91],[97,139]],[[60503,46050],[28,-153],[159,-76],[-64,-202],[-267,25],[-113,58],[-196,25],[-343,183],[-34,-112],[-364,80],[-72,-71],[-173,29],[-275,208],[-104,-37],[-117,21],[-329,127],[-176,20],[-77,-39],[-86,-223],[-132,-4],[10,-109],[-139,-81],[-102,35],[-117,-39],[-120,45],[-123,-170],[-233,-83],[-129,-13],[-206,136],[-59,-49],[-165,66]],[[56385,45647],[-76,38],[2,144],[-96,88],[-20,138],[-175,212],[-152,57],[-19,64],[-259,159],[-35,104],[50,68],[-173,83],[67,114],[-162,126],[-161,88],[68,128],[-138,156],[-94,7],[-69,126],[20,75],[-119,304],[-133,93],[-271,147],[-24,83],[-409,243],[-122,6],[-237,95],[-115,82],[50,860],[-240,87],[-172,383],[-853,1929],[-399,1062],[-2956,-1071],[-964,-260],[-289,-86],[-1352,-362],[-391,-111],[-66,-206],[-5,-389],[48,-173],[174,-1],[76,-487],[-295,-248],[-326,-2],[-109,-169],[39,-158],[-70,-215],[-101,-101],[-881,198],[-445,142],[-366,-16],[-4,-108],[-265,-150],[-69,9]],[[43302,49032],[146,56],[27,104],[75,41],[14,174],[-40,179],[22,93],[-28,204],[-90,12],[-77,116],[18,104],[-113,42],[-8,126],[-92,132],[-104,28],[-26,222],[-38,76],[11,176],[101,77],[58,190],[-34,129],[117,110],[-1386,118],[-1052,99],[-2508,244],[-1322,122],[-23,218],[115,121],[121,74],[167,184],[134,23],[-3,134],[69,154],[99,-10],[55,129],[-5,472],[66,135],[-7,82]],[[37761,53722],[62,95],[155,-95],[405,11],[264,53],[518,141],[179,73],[155,-49],[9,107],[372,90],[184,-43],[114,-67],[37,-99],[109,-67],[180,13],[13,-67],[137,-29],[40,-74],[191,-5],[267,37],[212,-66],[196,113],[150,119],[131,6],[210,-185],[186,-79],[140,-159],[59,-156],[109,-180],[152,-194],[88,-169],[123,-40],[10,-70],[115,-153],[37,-233],[106,-13],[33,-119],[83,13],[211,-109],[319,33],[387,3],[191,56],[59,60],[113,-31],[176,6],[38,-122],[118,-23],[167,-83],[68,34],[176,-31],[146,102],[122,-66],[325,39],[-2,123],[259,33],[205,93],[211,-5],[47,222],[131,95],[208,25],[186,85],[51,149],[82,63],[219,34],[52,-68],[160,-56],[117,68],[107,124],[177,-23],[221,52],[199,-60],[128,44],[385,35],[140,112],[-6,151],[55,87],[310,136],[60,156],[169,-72],[29,-68],[193,-84],[40,-81],[206,86],[214,220],[318,101],[181,226],[106,14],[69,89],[111,52],[57,120],[224,-132],[174,-43],[107,-87],[288,64],[-373,198],[-127,1840],[0,106],[-51,827],[-404,437],[-336,321],[-304,320],[-36,686]],[[50465,58865],[763,476],[1696,1083],[1231,785],[1250,773],[535,1818],[1676,773],[432,195],[2077,950],[983,447],[479,257],[723,329],[855,399]],[[63165,67150],[291,-288],[0,-198],[98,-107],[-37,-97],[58,-229],[113,-34],[123,-117],[226,-148],[203,-286],[128,-67],[28,-138],[320,-216],[128,-36],[96,-87],[137,-44],[176,-137],[184,-211],[-19,-155],[238,-253],[140,-232],[76,-187],[-8,-62],[148,-182],[176,-280],[131,-75],[159,-22],[254,-76],[146,-96],[164,-2],[170,-134],[292,-145],[116,-31],[51,-89],[122,-16],[136,-75],[431,-520],[207,-130],[129,-154],[142,-1],[326,-220],[-81,-66],[-788,-202],[-1177,-349],[-3,-22],[961,-1968],[754,-1522],[250,-538],[119,-195],[226,-498]],[[37249,32348],[-144,-627],[132,-81],[144,113],[232,106],[311,89],[45,-65],[378,-155],[-84,-141],[44,-77],[-146,-138],[4,-149],[-74,-164],[90,-98],[176,-18],[219,-267],[-64,-39],[120,-123],[76,46],[1306,-1383],[166,-86],[101,-15],[111,67],[99,-61],[14,-185],[104,-33],[-17,-126]],[[40592,28738],[36,-38],[-110,-148],[8,-65],[-131,-96],[46,-55],[-20,-176],[156,-103],[84,-125],[-63,-379],[158,-162],[161,-103],[118,-115],[99,26],[288,-2],[146,-27],[161,-151],[142,-84],[65,11],[146,-189],[43,-161],[236,-103],[118,13],[87,-53],[538,-40],[84,-107],[219,-6],[899,-511],[139,-46],[-32,-64],[167,-55],[34,68],[688,-217],[211,-211],[179,2],[107,-108],[211,-134],[391,-96],[530,56],[358,-93],[83,4],[114,-176],[190,-58],[-216,-65],[-251,-266],[-139,-66],[43,-251],[-83,-243],[-92,-120],[-75,31],[-151,-87],[-313,-84],[-68,71],[-244,-146],[759,-694],[973,-879],[388,-366],[1050,-957],[134,-183],[107,-204],[124,-178],[175,-146],[102,-257],[249,-28],[113,-168],[-47,-275],[45,-137],[94,-78]],[[50353,18885],[-244,-968],[-294,-171],[-138,-915],[-162,-998],[-203,-47],[-4,-860],[-60,-130],[-198,-34],[-217,160],[-143,31],[-159,-36],[-518,-24],[-728,-15]],[[47285,14878],[-24,35],[-229,1118],[-1152,618],[-707,362],[-242,115],[-1249,548],[-1532,678],[-997,450],[-788,347],[-1644,738],[-129,52],[-2297,1024],[-791,356],[-603,239],[-1313,589],[-1343,608],[-861,382],[-2488,1113],[-1131,502],[-1646,735]],[[26119,25487],[0,225],[332,-2],[-3,396],[-68,66],[52,116],[138,193],[-11,130],[73,329],[-29,77],[43,145],[-71,63],[-42,271],[-93,126],[152,-4],[-5,128],[97,-10],[76,83],[-20,266],[-95,90],[-40,118],[-106,-44],[-18,147],[-164,92],[125,76],[125,539],[160,107],[-72,201],[260,142],[-75,72],[6,174],[-99,167],[112,324],[187,302],[150,159],[-13,124],[-135,196],[-196,446],[-119,61],[897,750],[1583,1319],[1255,1077],[-152,1257],[-52,84]],[[30264,36065],[55,-63],[236,-101],[1732,-647],[545,-332]],[[32832,34922],[-24,-89],[-278,-773],[-273,-282],[911,-142],[1202,-181],[79,-115]],[[34449,33340],[-32,-51],[193,-86],[131,-209],[161,-24],[323,-225],[260,-99],[424,-45],[123,37],[163,-38],[114,69],[272,-63],[439,-188],[127,15],[102,-85]],[[13844,55141],[131,77],[277,79],[218,-59],[114,11],[103,-162],[197,-68],[147,75]],[[15031,55094],[30,-304],[114,-248],[77,43],[167,-31],[-4,-867],[137,5],[-5,-651],[-21,-142],[-150,5],[-93,-57],[-203,-59],[-21,-77],[-153,52],[-220,-172],[-246,31],[-336,76],[-155,-265],[-331,239],[-62,-60],[-179,-40],[-134,-133],[-99,-48],[-243,-14],[-288,-159],[-288,84],[-567,-529]],[[11758,51773],[298,-190],[155,-66],[236,-162],[15,-137],[196,-144],[227,-311],[174,-284],[-12,-450],[-81,-174],[-145,65],[58,-333],[133,-267],[313,-509],[14,-70],[-276,-1],[-164,-320],[-179,1],[-42,-92]],[[12678,48329],[-268,-34],[-136,115],[-101,-100],[-133,30],[-47,-50],[-131,27],[-115,-133],[-220,-10],[-102,32],[-166,-28],[41,-78],[12,-227],[-93,-2],[-66,87],[-234,-30],[-281,-194],[-246,4],[-76,41],[-237,-11],[-164,-103],[-140,-1],[-78,-78],[-115,52],[-175,-37],[-393,21],[-375,-71],[-201,-61],[-42,-109],[-138,-81],[-132,2],[-65,-54]],[[8061,47248],[16,145],[-133,119],[94,97],[-122,110],[-137,-22],[-112,-112],[-164,-32],[-306,-171],[-166,-14],[17,150],[-222,51],[-17,69],[199,7],[149,94],[-30,107],[-183,61],[-429,-116],[24,111],[78,103],[-145,106],[-35,97],[145,145],[148,30],[-121,119],[-153,-51],[-192,-120],[-114,-130],[-204,-73],[42,159],[-3,204],[-84,121],[171,47],[2,167],[38,118],[-157,125],[100,72],[-21,64],[-283,199]],[[21610,45756],[-196,-187],[-107,-37],[-16,-76],[112,-115],[-132,-78],[-17,-81],[-154,-32],[-16,-82],[96,-235],[434,40],[86,-10],[109,-132],[186,-8],[-106,-398],[-64,-5],[-18,-156],[28,-128],[-93,-314],[-62,-54],[-172,-49],[-4,-114],[-143,-63],[-225,99],[-121,-7],[-89,-71],[-49,-163],[-147,48],[37,209],[-169,93],[-371,133],[-59,-101],[-235,10],[-437,-86],[-248,-110],[-462,-134],[723,-940],[11,-37]],[[14338,40204],[51,131],[-151,258],[-12,420],[40,57],[-58,94],[108,171],[-54,65],[-243,27],[15,134],[66,3],[82,299],[-154,320],[-172,101]],[[13740,42486],[-48,158],[-28,245],[68,195],[181,74],[282,207],[52,84],[48,232],[29,320],[68,186],[116,103],[389,75],[312,455],[379,-99],[80,34],[219,-28],[193,24],[224,-126],[45,-182],[147,-10],[214,-117],[79,-123],[109,-46],[-5,-89],[88,-48],[291,7],[173,-38],[86,-84],[86,9],[283,105],[-150,448],[-5,156],[-433,6],[-210,286],[-110,-48],[-211,314],[-235,4],[-105,141]],[[16441,45316],[612,65],[404,135],[385,-245],[418,10],[224,119],[140,102],[289,89],[-245,543],[114,262],[307,146],[-38,72]],[[19051,46614],[390,6],[59,-74],[120,-44],[162,-7],[64,-49],[192,-14],[112,69]],[[32832,34922],[99,275],[279,259],[37,-18],[266,382],[-34,254],[122,452],[-142,165],[12,110],[-105,173],[-129,22],[-93,66],[66,105],[-157,74]],[[33053,37241],[216,103],[-74,72],[297,142],[145,243],[-121,149],[-33,209],[419,-33],[-4,35],[649,489],[-175,55],[150,141],[188,-53],[180,-174],[68,-18],[193,-230]],[[35151,38371],[249,-121],[109,-144],[250,6],[435,-238],[240,-84],[31,-51],[280,-123],[131,-10],[325,-122],[89,-152],[191,-37],[65,-126],[373,-187],[144,-90],[113,-166],[212,-59],[580,-386],[66,-112],[242,-47],[203,81],[263,-88],[223,-14],[124,-63],[60,-95],[137,33],[277,-50],[240,89],[38,106],[182,-90],[156,74],[132,15],[135,73],[68,81],[185,-68],[239,69],[258,-249],[208,-139],[160,-74],[131,-137],[170,-13],[122,-127],[176,-29]],[[43163,35507],[-250,-232],[-51,62],[-244,171],[-102,107],[-161,111],[-204,62],[-192,-14],[-280,-114],[-129,45],[-255,-37],[-257,-148],[-60,-116],[-163,-114],[149,-211],[-77,-189],[8,-96],[-90,-59],[-105,-151],[-126,-64],[50,-98],[-100,-197],[-123,-7],[-71,-71],[-129,1],[-192,-137],[-23,-132],[-86,-13]],[[39900,33866],[-194,127],[108,39],[-84,111],[-99,-37],[-219,319],[-249,-50],[-159,-106],[-330,-153],[-243,128],[-186,-56],[-155,-4],[-243,78],[-81,-8],[-196,98],[-38,50],[365,314],[-272,130],[-242,20],[-157,-130],[130,-189],[-322,-33],[-118,57],[-47,-125],[-105,1],[-23,-107],[-126,42],[-64,-54],[-540,232],[-84,-128],[69,-44],[-142,-178],[-105,5],[-168,70],[-123,-177],[-225,23],[-18,-108],[-109,-174],[-199,50],[-187,-166],[-86,-235],[-185,-158]],[[78439,19379],[34,-104],[119,-103],[-53,-81],[-79,-237],[34,-29],[-41,-231],[15,-175],[-84,-238],[-75,-115],[18,-312],[-122,-396],[12,-229],[61,-37],[193,-228],[48,-89],[296,-75],[211,135],[106,18],[26,-103],[-238,-140],[-177,-36],[-138,-149],[-11,-96],[-105,-20],[-158,-94],[-56,-128],[54,-156],[-213,-125],[-11,-71],[94,-387],[-238,-343],[-253,-270],[-49,-156],[109,-177],[-39,-211],[80,-85],[-113,-194],[-36,-143],[-172,-128],[-246,-123],[-165,-49],[-263,-174],[-156,-52],[-268,-164],[-61,8],[-485,-306],[-58,116],[137,84],[133,-19],[60,43],[-97,91],[40,48],[-117,168],[51,94],[-179,43],[-275,-96],[50,-110],[-94,-78],[-132,-10],[6,-116],[72,-155],[108,-83],[175,-51],[32,-120],[-144,-263],[-190,-291],[-123,-241],[-73,-85],[-62,-224],[-180,-399],[-304,-543],[-152,-233],[-59,-36],[-251,31],[-50,65],[-148,53],[-81,115],[-88,40],[-208,11],[103,-215],[-176,-16],[50,-130],[178,-59],[312,157],[312,-90],[74,-138],[-21,-212],[52,-213],[-155,-275],[-37,-140],[-134,-251],[-95,-308],[-80,-135],[-12,-131],[-245,-430],[-295,-436],[-133,-297],[-119,-116],[-170,-54],[-217,82],[-208,-26],[-122,77],[7,75],[-101,126],[-130,-13]],[[72281,7462],[-234,39],[-368,-62],[96,-96],[30,-104],[-76,-46]],[[71729,7193],[24,-87]],[[71753,7106],[-103,15],[-153,-58],[-347,140],[-202,-157],[-181,-95],[77,-91],[-71,-73]],[[70773,6787],[-176,75],[-125,-73],[30,240],[-40,102],[-165,45],[-53,76],[36,99],[-102,57],[-16,115],[-268,156],[-25,142],[-148,62],[-217,206],[-208,64],[-223,214],[-151,62],[-39,57],[-261,-46],[-181,155],[-61,178],[137,81],[71,294],[-90,163],[-153,-35],[-166,69],[-49,121],[-142,195],[68,99],[51,375],[-79,159],[-86,26],[46,153],[-22,239],[-197,68],[-143,151],[5,90],[-208,-48],[-241,-5],[-1342,3],[-1103,-2]],[[64737,10969],[227,689],[23,98],[717,2148],[657,1966],[25,57]],[[66386,15927],[118,93],[639,588],[1641,1453],[956,843],[1688,1513],[1252,1122],[701,635],[1425,1286],[1868,-2096],[1765,-1985]],[[41975,38562],[-65,54],[-7,123],[-80,115],[103,32],[15,119],[-171,168],[-18,105],[-72,66],[-96,400],[-133,-57],[-134,-148],[-136,112],[-42,126],[-254,-17],[-50,118],[-94,48],[2,125]],[[40743,40051],[63,176],[70,78],[-26,102],[-208,72],[-145,131],[3,270],[-55,248],[236,52],[82,128],[-63,124],[16,100],[123,44],[-19,358],[299,63],[-2,86],[74,83],[415,855],[872,1841]],[[11844,41365],[136,-27],[13,-287],[95,-218],[-70,-165],[213,-294],[-39,-94],[-151,58],[-91,-6],[-165,95],[-148,11],[-133,-162],[-163,-143],[-101,-160],[-15,-174],[-224,-48],[-33,-104],[80,-118],[165,19],[136,-56],[44,-95],[151,-53],[66,-66],[361,-199],[370,-136],[100,-113],[151,-3],[308,-126],[564,-744],[304,-412]],[[13768,37545],[-1052,-206],[-144,-20],[-491,-109],[-591,-109],[-319,-72],[-881,-175],[-700,-133],[-193,5],[-180,71],[-94,-31]],[[9123,36766],[-124,65],[-112,180],[11,165],[-82,324],[-31,41],[26,187],[-71,116],[-5,166],[129,6],[54,126],[-31,52],[1,318],[40,351],[54,158],[-22,100],[183,246],[-36,34],[-69,396]],[[7142,43384],[-266,642],[-413,974],[-40,156],[-132,256],[11,141],[113,128],[459,241],[285,113],[284,50],[243,68],[80,51]],[[7766,46204],[184,-77],[91,46],[111,-90],[18,-134],[222,85],[87,243],[-13,92],[156,102],[203,-105],[111,26],[561,-181],[214,44],[49,-75],[216,-21],[75,109],[127,40],[174,-195],[81,21]],[[10433,46134],[60,-105],[165,170],[206,-16],[69,107],[193,142],[105,37],[140,114],[114,7],[-257,-289],[-10,-154],[233,-58],[662,14],[134,15],[222,-32],[140,20],[39,-101],[134,5],[288,95],[89,-61],[305,130],[241,-102],[-8,-241],[651,0],[81,-119],[110,109],[230,107],[42,138],[86,70],[-31,153],[66,16],[465,-256],[191,-52],[44,57],[145,29],[332,20],[255,-96],[81,-306],[-4,-385]],[[50338,42105],[197,19],[159,136],[56,171],[52,264],[-69,47],[130,95],[-81,77],[115,204],[-9,119],[47,143],[110,132],[5,105],[86,110],[341,-40],[67,-52],[175,-28],[325,25],[208,-8],[165,-52],[147,26],[273,201],[52,124],[249,66],[43,134],[232,320],[60,391],[253,105],[4,127],[181,241],[156,98],[226,64],[230,-83],[54,72],[151,24],[23,70],[140,86],[96,165]],[[54987,45803],[50,14],[188,-139],[161,50],[101,-13],[430,-236],[172,135],[99,-27],[197,60]],[[56385,45647],[952,-1284],[468,-620],[732,-983],[1015,-1372],[63,-102],[764,-1009],[845,-1131],[246,-391],[908,-1516],[790,-1328],[90,-1148],[145,-1918],[130,-1718],[106,-1419],[-183,-115],[-157,-23],[-175,-117],[612,-1806],[81,-281],[-176,-305],[-874,-1346],[-814,-1255],[-853,-1313],[-89,-25],[-73,-115],[-168,20],[-309,-119],[-89,4],[-63,-139],[-221,-167],[-158,-57],[-110,-90],[-324,-69],[-310,-9],[-248,55],[2829,-3116],[2825,-3112]],[[64592,16208],[-139,-4],[-356,162],[-132,43],[-87,-38],[-365,-27],[-153,-119],[-334,11],[-177,35],[-67,-57],[-344,-20],[-164,32],[-348,-181],[-176,-35],[-67,72],[-223,-76],[-73,-59],[-217,-6],[64,154],[-502,87],[-101,-29],[-316,41],[-337,107],[-152,-40],[-390,-14],[-50,96],[-218,148],[-175,7],[-245,51],[6,91],[-190,-16],[-116,111],[-321,19],[-240,114],[-251,-5]],[[57636,16863],[-185,90],[-150,167],[-65,121],[-127,-4],[-40,108],[-163,292],[-132,35],[54,91],[-149,58],[35,74],[-172,154],[-68,354],[-103,63],[83,190],[80,78],[-153,283],[-81,99],[-44,130],[-208,346],[-128,350],[-189,136],[7,77],[-234,433],[-28,104],[-101,33],[-83,201],[66,101],[-180,61],[-76,325],[-51,117],[-134,56],[-85,119],[-89,35],[-74,312],[-99,263],[-282,43],[-197,108],[-80,86],[-90,15],[-144,436],[-172,26],[-93,112],[-192,29],[-276,105],[-71,68],[-253,-7],[-119,78],[-14,95],[-82,35],[-1,157],[-96,30],[-60,89],[-91,-4],[-75,113],[-104,21],[-78,343],[3,120],[-110,56],[-79,213],[-74,55],[3,116],[-261,66],[-102,150],[-393,-110],[-215,-85],[-118,253],[-89,65],[5,120],[62,214],[-5,362],[-111,277],[-142,38],[61,94],[-82,211],[-103,51],[-163,385],[8,92],[-85,136],[6,130],[102,137],[-143,132],[-96,239],[2,90],[-155,31],[-29,81],[96,113],[-131,58],[-183,167],[-251,192],[-105,178],[26,114],[115,-24],[71,152],[-67,235],[-70,69],[8,98],[-127,35],[23,201],[-221,122],[35,62],[-265,232],[-4,127],[-300,383],[-9,50],[-203,150],[-77,95]],[[48058,30821],[-45,119],[-81,7],[-165,145],[-209,288],[-168,28],[-67,95],[79,65],[142,24],[73,-42],[244,-24],[290,70],[157,18],[80,142],[220,164],[155,80],[85,2],[-152,440],[-192,256],[-95,47],[-79,121],[-125,51],[-217,-26],[-198,215],[-81,123],[-108,236],[-102,101],[-36,102],[-96,82],[-115,290],[-139,82],[-356,357],[-186,347],[-178,176],[-184,21],[-105,115],[-25,435],[1725,67],[752,-447],[99,81],[82,247],[244,210],[197,195],[58,90],[-9,100],[46,285],[1,140],[92,35],[120,114],[-272,266],[57,143],[-115,54],[-40,174],[-107,73],[-141,24],[69,90],[-32,112],[125,262],[127,86],[-10,95],[100,23],[-70,139],[20,72]],[[70773,6787],[-69,-210]],[[70704,6577],[2,-93],[159,-75],[24,-128],[-3,-440],[74,-156],[-42,-97]],[[70918,5588],[46,-54],[136,42],[31,127],[134,129],[246,-218],[44,-67],[-28,-197],[-50,-49],[209,-109]],[[71686,5192],[-165,-253],[-183,-206],[-213,-563],[-16,-151],[-229,-400],[-179,-360],[-35,-121],[-158,-295],[-79,-321],[-76,19],[-74,153],[-252,-77],[-50,-66],[57,-96],[-32,-128],[-148,-112],[9,-128],[-207,-142],[-177,-348],[-107,-48],[-193,85],[-230,-32],[58,-93],[-21,-121],[-114,49],[-61,-133],[-262,-64],[-143,104],[-70,-121],[120,-45],[52,-122],[198,-210],[-155,-58],[78,-261],[104,-175],[-267,-56],[-323,86],[-157,20],[-190,-37],[-238,57],[-55,95],[50,82],[125,67],[-52,62],[-41,213],[73,134],[-308,5],[-208,-153],[-137,48],[-88,-26],[-228,147],[-22,-93],[130,-106],[75,-118],[-130,-9],[-278,-124],[-22,-140],[-95,-88],[-63,-270],[113,-148],[-176,5],[-57,98],[-420,245],[-573,303],[-1517,845],[-2444,1354],[-2469,1367],[-2028,1119]],[[56713,5336],[2806,790],[1857,528],[200,64],[1395,386],[471,838],[643,1156],[-782,375],[-526,245],[475,618],[1095,-506],[189,527],[201,612]],[[69339,1175],[-18,-152],[-52,-87],[-162,-55],[-51,241],[33,78],[125,-28],[23,154],[80,109],[107,-44],[-13,-152],[-72,-64]],[[68131,219],[370,-48],[148,28],[29,-138],[-200,35],[-219,-26],[-206,21],[78,128]],[[67445,873],[-95,90],[151,97],[52,-85],[-108,-102]],[[32243,54746],[-73,-232],[13,-95],[218,4],[2158,-3],[176,74],[167,8],[136,-33],[314,112],[234,291],[307,88],[146,19],[326,-152],[1,-131],[172,-273],[17,-122],[105,-55],[70,-180],[219,-400],[262,-27],[115,47],[152,-34],[87,-82],[65,101],[131,51]],[[43302,49032],[-172,-181],[80,-40],[-144,-215],[-84,-168],[1,-147],[-103,-118],[-83,-27],[-163,23],[-153,-47],[-320,-260],[-15,-218],[-242,-185],[-120,-144],[-75,118],[-151,-43],[-27,-237],[-226,-76],[-340,-158],[-197,-9],[-239,-54],[-63,-64],[-247,-61],[-230,4],[-260,-155],[165,-114],[135,-224],[107,-70]],[[40136,46162],[-100,-169],[-439,360],[-204,7],[-428,-441],[-21,-40],[-347,-154],[-245,-61],[50,-235],[46,-400],[116,-92],[167,-60],[138,-254],[-139,-456],[63,-92],[-192,-217],[-117,-35],[122,-145],[-136,-239],[-368,130],[-972,234],[-111,113],[-186,-75],[-193,406],[-17,147],[326,122],[72,103],[-157,226],[21,103],[-154,59],[-211,26],[-7,304],[-493,-35],[-290,-66],[-38,50],[-165,-112],[-442,-83],[-68,-65],[-647,-167]],[[34370,44859],[-42,-9],[-266,461],[-534,43],[-248,-14],[-134,147],[-16,125],[-116,67],[55,144],[269,230],[64,101],[99,15],[754,39],[-167,304],[-423,-114],[-122,202],[-29,191],[-176,250],[-672,-197],[-150,383],[-220,179],[-359,328],[-241,-447],[-286,-98],[-271,-272],[312,-112],[-94,-52],[-150,5],[-215,-120],[-461,-113],[-66,154],[-245,-67],[14,-51],[-307,-38],[-385,-151],[-80,-207],[-130,-14]],[[29332,46151],[105,403],[-109,371],[52,56],[119,237],[234,250],[-42,149],[-95,195],[-222,289],[-78,66]],[[95041,29874],[271,6],[-53,-73],[-438,-317],[-238,-267],[-92,-132],[-178,-116],[-473,-441],[-200,-144],[12,-78],[-74,-81],[-258,-187],[-111,-184],[4,-68],[-123,-61],[-253,-203],[-85,-132],[-95,-10],[-238,-267],[-7,-67],[-116,-80],[-170,-48],[-52,-95],[-203,-121],[-37,411],[-161,51],[-159,-136],[-55,107],[112,114],[-17,108],[-163,-26],[-28,157],[-97,-11],[-126,88],[-182,-60],[-60,-95],[-423,-217],[-5,-92],[-423,-237],[-157,25],[-123,-47],[-173,-17],[-247,-128],[-30,-44],[32,-192],[-132,-179],[-180,-185],[-86,45],[-104,-98],[-96,54],[6,112],[-186,-43],[-117,166],[74,85],[-180,97],[-39,68],[74,110],[26,229],[-100,118],[327,305],[38,84],[155,49],[248,133],[57,90],[-63,116],[-320,-241],[-170,-1],[-85,-128],[-162,-92],[-6,-124],[-180,-49],[-87,-101],[22,-144],[93,-41],[-77,-93],[49,-130],[-155,-143],[-130,-22],[-182,-94],[-201,170],[-190,39],[-265,3],[-47,111],[-216,82],[-72,215],[-65,-106],[-431,54],[-107,79],[-128,2],[68,-146],[277,-95],[153,-108],[153,9],[343,-199],[-53,-115],[240,-73],[245,76],[65,-61],[-47,-298],[-168,108],[-65,-201],[102,-160],[136,-11],[152,-175],[-12,-326],[92,-360],[-29,-163],[57,-362],[35,-90],[-270,118],[10,73],[-138,22],[-35,110],[-205,-99],[78,-40],[-3,-182],[-142,-57],[-100,-91],[-373,89],[-153,-21],[-107,-55],[-188,1],[82,-103],[-167,-120],[-73,60],[-197,45],[-33,-76],[-468,211],[20,-175],[-115,-73],[138,-76],[32,-104],[-172,-5],[-188,-55],[-90,-96],[130,-27],[23,-142],[217,-21],[48,58],[393,-125],[7,-111],[152,-284],[84,-72],[-131,-59],[28,-81],[117,-34],[106,123],[39,103],[-27,137],[97,11],[116,-93],[135,-22],[95,-140],[-5,-169],[-488,-308],[-176,-176],[-49,-139],[-211,13],[-179,-56]],[[85367,22006],[-886,-107],[-1109,262],[-1666,405],[-12,-99],[-208,-120],[-115,-12],[-121,-74],[-275,29],[-178,47],[-200,94],[-107,142],[-1158,6],[-45,67],[0,1418],[-16,50],[-461,2056]],[[89960,26002],[73,-65],[127,6],[225,-151],[58,56],[220,-57],[42,-57],[-72,-124],[-80,-49],[-138,12],[-57,116],[-288,39],[-223,-192],[168,-136],[-27,-107],[92,-87],[-110,-67],[-137,-5],[-126,109],[18,96],[-108,46],[-15,-147],[-230,-68],[-58,23],[3,225],[-258,-18],[-60,-64],[-250,-91],[20,-117],[-157,13],[-133,60],[-23,132],[-167,40],[22,78],[233,72],[60,-92],[112,-49],[3,145],[183,-14],[332,154],[201,-53],[22,73],[172,67],[61,95],[7,133],[181,-16],[82,36]],[[87266,24083],[159,-165],[180,-297],[-65,-50],[-302,28],[-370,-99],[-218,-122],[-178,-136],[-120,-16],[15,202],[-20,194],[155,160],[205,165],[178,2],[253,35],[128,99]],[[88473,24015],[38,-55],[-220,-226],[-10,-71],[-135,-165],[-210,-117],[-208,-26],[-123,46],[-14,106],[255,137],[272,-44],[-42,87],[-100,54],[-205,1],[-235,260],[-90,215],[4,99],[158,-29],[238,-170],[90,-38],[67,141],[108,-8],[107,-87],[-119,-93],[90,-69],[132,87],[-42,94],[85,54],[109,-183]],[[90320,25581],[48,-91],[122,4],[78,-106],[-188,3],[-143,96],[83,94]],[[48058,30821],[-218,-83],[-32,-189],[-189,-145],[-97,58],[-96,156],[-170,-9],[8,-117],[-115,-265],[-253,-182],[-69,143],[-80,25],[-78,192],[-15,123],[-229,149],[-88,160],[-76,-13],[-174,145],[-177,-93],[-86,30],[-160,-22],[-231,191],[-230,40],[-103,95],[-141,-7],[-233,122],[-282,-18],[-267,-134],[-278,8],[-273,95],[-255,13],[-102,-95],[-135,-49],[-23,-73],[-292,-187],[139,-147],[222,-149],[84,-131],[142,-318],[231,-270],[95,-218],[-37,-60],[-360,-137],[-239,-25],[-165,58],[-387,0],[-313,-105],[15,130],[-130,108],[-174,71],[89,121],[-244,334],[-14,421],[-245,29],[-35,-30],[-676,-247],[212,-355],[58,-666],[-33,-12],[-220,-321],[-135,-73],[-107,-155]],[[37249,32348],[519,-180],[141,-1],[107,-51],[-118,344],[-244,95],[-109,204],[-98,89],[353,252],[332,-95],[67,-57],[222,389],[-121,250],[262,81],[89,-191],[301,88],[494,-93],[87,16],[47,135],[129,83],[142,43],[49,117]],[[43163,35507],[312,356],[417,238],[-185,213],[-539,239],[-309,27],[92,84],[264,126],[-152,165],[-141,-141],[-191,100],[-140,35],[-28,79],[136,60],[-72,142],[-236,127],[-234,100],[-325,284],[-49,69],[-335,88],[96,150],[317,-1],[57,467],[57,48]],[[57636,16863],[-63,-80],[-287,0],[-439,-61],[-88,151],[-219,160],[-278,293],[-146,10],[-159,64],[-299,228],[-276,307],[-230,301],[-265,230],[-273,316],[-348,306],[-827,472],[-270,96],[-115,-50],[-303,0],[-158,-134],[-918,-384],[-858,-368],[-464,165]],[[88551,67934],[-322,-24],[-269,11],[-291,106],[-453,283],[-211,190],[-58,172],[-144,166],[-229,182],[-120,41],[-276,-6],[-334,221],[-232,24],[-227,-23],[-248,154],[-63,156],[-281,228],[-176,76],[-29,88],[-107,61],[-21,335],[-70,69],[-216,51],[-344,269],[-128,175],[-4,116],[-144,94],[67,100],[-188,137],[-37,71],[6,154],[-265,286],[22,104],[-135,132],[6,99],[-175,403],[-106,126],[-95,304],[-203,180],[134,232],[74,22],[-26,212],[11,161],[-220,94],[10,87],[-95,67],[110,74],[-77,63],[-31,286],[34,63],[-53,166],[-1363,509],[-1424,514],[-156,166],[-677,630],[-422,382],[-473,412],[-687,586],[-417,367],[-128,88],[-1093,350],[-2004,631],[-6,829],[1,1544],[-5,1185]],[[73468,82965],[669,1132],[334,578],[1641,680],[1515,621],[374,138],[69,1],[184,118],[143,50],[128,148],[184,-37],[1742,556],[518,178],[117,-15],[93,69],[287,105],[1945,622],[940,307],[525,162],[150,94],[228,0],[202,119],[189,187],[299,-13],[103,-128],[140,-19],[256,-129],[326,-56],[67,-185],[187,-15],[217,-157],[7,-181],[145,-93],[79,-235],[263,-105],[233,-10],[440,-258],[17,-87],[169,-2],[289,-209],[46,-102],[261,-51],[116,-196],[154,-90],[90,-91],[18,-110],[131,-36],[93,-101],[188,-64],[-38,-136],[83,-64],[105,25],[196,-140],[-7,-70],[181,-51],[251,-104],[84,-83],[89,16],[215,-87],[129,5],[2,102],[116,73],[191,3],[114,59],[171,-71],[94,34],[408,-84],[283,-12],[96,-51],[327,80],[43,109],[276,-77],[62,81],[198,42],[280,-149],[232,8],[231,88],[143,-38],[175,59],[302,14],[98,-78],[86,62],[63,118],[235,107],[95,-5],[153,-127],[184,27],[174,-23],[111,44],[191,-11],[200,109],[131,-114],[141,-78],[199,8],[415,196],[205,32],[411,-70],[-8,-82],[305,14],[200,55],[5,-121],[69,-114],[245,3],[10,-79],[277,34],[153,-32],[18,102],[134,-6],[388,199],[100,-62],[-248,-286],[-344,-373],[-410,-494],[-379,-399],[-1457,-1655],[-1039,-1164],[-390,-448],[-1015,-1134],[-175,-214],[-651,-740],[-1040,-1168],[-94,-95],[-569,-435],[-435,-349],[-1503,-1153],[-501,-394],[-535,-406],[-626,-494],[4,-315],[-16,-2242],[10,-682],[-10,-1709],[0,-829],[-10,-515],[-15,-117]],[[50465,58865],[67,1228],[-1228,712],[-87,-162],[8,-70],[-79,-105],[-167,-44],[-123,20],[-88,-49],[-192,-32],[-160,42],[-42,-66],[-113,19],[-279,-11],[-187,-65],[-242,12],[-362,-86],[-96,43],[-185,-53],[-181,4],[-308,-206],[-207,-10],[-118,75],[-179,-137],[-152,179],[-76,14],[-172,200],[-637,898],[-328,511],[-549,657],[-874,1087],[-236,97],[-446,135],[-392,1173],[-499,21],[-182,192],[-542,301],[-139,154],[-49,270],[-327,9],[-525,92],[-222,77],[-801,19],[-176,152],[-260,88],[-347,177],[-141,-12],[-119,-59],[-146,-2],[68,407],[-36,408],[-88,34],[25,214],[-153,306],[-84,351],[-33,29],[-346,583],[-247,210],[-929,2050],[-142,320],[-244,-7],[-303,-58],[-187,40],[38,-333],[-91,-244],[-135,37],[-152,-111],[-194,-263],[-72,-14],[-103,-129],[-110,-13],[-45,75],[-105,27],[-47,-157],[-133,-31],[-79,91]],[[33653,70176],[-135,82],[-83,-62],[-215,-27],[-89,-74],[-271,109],[-87,244],[-94,138],[17,179],[42,70],[-24,138],[41,128],[-7,244],[-75,111],[-112,261],[-251,141],[-265,284],[-28,69],[-204,14],[-216,227],[-42,171],[17,198],[-25,83],[162,262],[-187,84],[-137,236],[-30,245],[-234,290],[-249,469],[-231,206],[-189,25],[-318,119],[-266,129],[-204,34],[-181,191],[-79,196],[-53,245],[-147,-50],[-124,65],[-445,59],[-110,61],[-680,10],[-180,118],[57,227],[92,78],[16,168],[50,75],[17,179],[-27,144],[103,50],[57,146],[-39,44],[31,201],[-35,199],[-135,213],[149,345],[18,203],[-73,119],[-89,-147],[-243,53],[-88,61],[-150,5],[-402,74],[-210,108],[-8,2413],[-5,1657],[-4,1289],[-6,2036],[-3,1454],[-1,1300],[10,1867]],[[26747,90459],[2290,-2],[161,60],[224,-66],[1704,-27],[779,-18],[669,-3],[385,-15],[984,99],[240,-4],[208,-118],[237,-7],[1261,55],[786,27],[448,-176],[376,-72],[617,-210],[0,-57],[197,5],[142,-29],[218,-166],[77,13],[139,-79],[121,100],[304,-159],[131,-186],[155,13],[145,-47],[299,-368],[232,-134],[56,22],[795,-412],[501,-251],[1917,-990],[450,-218],[897,-468],[1073,-617],[574,-297],[334,-210],[598,-328],[164,-72],[600,-327],[424,-209],[566,-300],[787,-405],[109,-67],[592,-269],[339,-142],[186,-29],[133,-229],[360,-301],[154,-65],[667,-426],[202,-175],[78,55],[208,11],[396,73],[1718,-85],[1131,-60],[453,-34],[713,203],[220,48],[-16,248],[220,21],[145,-125],[95,-190],[6,-73],[292,-90],[540,-19],[431,-82],[79,-31],[138,158],[-44,118],[173,30],[78,-136],[345,-399],[1487,-356],[117,-14],[709,-199],[676,32],[-14,88],[78,59],[139,-7],[67,-59],[220,-43],[279,-90],[-1,117],[178,39],[245,-65],[69,53],[217,49],[8,93],[111,4],[242,-195],[297,-102],[241,-9],[33,-92],[305,-116],[150,21],[77,-131],[364,29],[123,-35],[257,-13],[145,-49],[279,80],[190,-15],[195,202]],[[67636,81020],[74,-74],[-79,-173],[-195,-188],[-51,-122],[20,-152],[156,-216],[155,-904],[35,-256],[115,-86],[56,-314],[18,-737],[21,-363],[9,-659],[-307,-177],[-390,-151],[-496,-418],[-58,-101],[-339,-67],[-227,-120],[-82,-99],[-554,-26],[-106,-121],[-191,-81],[-92,-171],[-66,-319],[-576,-10],[38,-736],[-101,-724],[-123,-110],[-36,-177],[-158,-152],[-415,-804],[-312,-415],[-1139,-237],[47,-86],[29,-237],[60,-132],[39,-185],[150,-310],[0,-64],[177,-301],[30,-283],[50,-101],[-36,-299],[53,-275],[-122,-293],[36,-246],[66,-176],[47,-280],[-13,-165],[5,-380],[225,-524],[82,-73]],[[54987,45803],[-233,249],[-84,50],[-220,58],[-190,12],[-75,-30],[-159,100],[-36,130],[-74,75],[-193,72],[-192,-38],[-198,104],[-207,43],[-209,159],[-182,64],[-95,-21],[-81,62],[-111,-83],[-117,9],[-83,-57],[-61,-119],[-318,-59],[-179,32],[-135,162],[-186,154],[-315,84],[-146,-22],[56,-211],[-78,-1],[-143,119],[-132,-47],[-75,25],[-335,-209],[-184,-161],[-265,-44],[-29,-100],[112,-63],[431,80],[-22,-148],[-67,-115],[26,-103],[132,-33],[12,-187],[-336,-324],[-473,-384],[-443,-299],[-397,-253],[-181,148],[-163,84],[-157,12],[-155,-248],[-399,-196],[-160,9],[-295,-51],[-220,11],[-177,-67],[-351,78],[-142,108],[-251,39],[-165,97],[-1114,81],[-1162,102],[-1128,120]],[[42478,44862],[-2148,1118],[-46,91],[-148,91]],[[9123,36766],[-369,-293],[-274,-200],[36,-254],[110,-172],[202,-160],[-33,-146],[54,-47],[51,-206],[89,-91],[22,-126],[-95,-170],[154,-69],[209,-148],[-3,-90],[215,-115],[33,-123],[169,-13],[141,-523],[43,-77],[114,-345],[246,-797]],[[10237,32601],[-1624,726],[-227,116],[-353,142],[-489,241],[-594,245],[-1157,522],[-1267,565],[-307,149],[-279,114],[-645,302],[-137,50],[-1047,465],[-25,3],[-412,-236],[-116,6],[-105,100],[-18,224],[-124,96],[-1039,2],[-101,1935]],[[72281,7462],[87,-15],[-11,-112],[149,-155],[234,-22],[99,44],[204,-76],[31,-93],[-281,-296],[-62,-150],[51,-40],[-137,-134],[-206,-256],[-126,-62],[-105,2],[-43,190],[-61,127],[-187,99],[119,167],[-52,222],[-98,76],[40,64],[-197,151]],[[71753,7106],[77,-5],[20,-147],[70,-114],[-166,-1],[-13,82],[-100,28],[-140,-69],[-157,80],[-15,99],[-100,26],[31,-165],[97,-100],[240,-83],[54,-234],[56,-71],[-61,-105]],[[71646,6327],[-165,-56],[-144,34],[-389,-22],[29,133],[-228,92],[-45,69]],[[70918,5588],[137,68],[-91,152],[17,143],[105,86],[319,95],[114,-36],[120,62],[29,-103],[90,-80],[145,-55],[159,-17],[18,-103],[-226,-324],[-78,-168],[-90,-116]],[[71646,6327],[113,18],[147,84],[175,-83],[98,-329],[-194,-77],[-164,152],[-74,29],[-18,104],[-83,102]],[[35151,38371],[51,254],[122,6],[-162,142],[-59,118],[-61,383],[-84,176],[34,320],[-46,205],[24,173]],[[34970,40148],[53,194],[-47,205],[202,159],[109,41],[213,-42],[353,42],[148,-34],[237,-10],[16,-92],[155,-33],[194,-107],[95,4],[190,-124],[194,1],[116,-46],[113,25],[237,-14],[544,212],[125,15],[221,104],[119,-16],[48,-76],[217,3],[128,-61],[289,-41],[131,-156],[100,2],[428,-192],[1,-75],[236,-81],[231,77],[182,-22],[195,41]],[[11758,51773],[590,32],[1840,116],[666,-220],[122,95],[313,-70],[35,-54],[241,20],[123,72],[-75,-375],[-84,-192],[-145,-162],[109,-170],[251,-303],[76,-47],[215,-389],[449,-601],[748,-870],[277,-138],[127,96],[114,-62],[136,-156],[187,84],[115,-153],[-52,-86],[-263,34],[17,-229],[-80,-119],[-3,-156],[317,-141],[109,-15],[44,-77],[172,-55],[-174,-395],[-110,-10],[-186,-142],[246,-163],[265,-64],[173,-77],[388,-17]],[[10433,46134],[-82,211],[181,108],[92,-103],[211,64],[38,56],[225,129],[292,91],[168,-23],[44,144],[121,133],[-31,49],[164,197],[-38,239],[29,111],[299,231],[230,97],[157,25],[75,124],[-50,47],[120,265]],[[20955,40524],[149,-677],[143,-165],[234,-123],[162,-163],[111,53],[39,102],[126,48],[31,127],[145,90],[101,184],[-8,156],[98,219],[197,162],[64,142],[-26,176],[165,58],[120,139],[76,31],[413,-71],[60,237],[206,389],[26,192],[190,-10],[48,-89],[-16,-111],[306,31],[-80,-193],[218,-76],[168,-94],[321,-132],[191,-205],[315,-40],[83,-88],[102,14],[95,-133],[381,-619],[-397,-345],[-433,302],[-505,-25],[22,-98],[185,12],[467,-469],[11,-112],[193,-79],[819,493],[210,-154],[293,155],[509,213],[59,6],[27,-325],[487,-349],[183,-29],[16,-123],[106,-212],[244,-101],[77,-61],[-58,-125],[91,-92],[-30,-197],[-378,-317],[134,-320],[248,-375],[206,-244],[605,163],[121,21],[325,-467],[518,-766]],[[26119,25487],[-254,109],[-1677,750],[-1318,585],[-2049,919],[-613,270],[-433,201],[-1323,588],[-211,89],[-1405,631],[-720,308],[-1853,838],[-437,203],[-1074,476],[-2510,1126],[-5,21]],[[33053,37241],[-127,125],[128,351],[-24,178],[112,126],[-73,159],[-191,602],[-116,333],[-127,217],[290,128],[-287,433],[62,37],[-21,111],[-99,56],[-12,77],[-119,17],[-477,-36],[-147,142],[-60,461],[-102,-43],[-454,-48],[-47,21],[33,212],[-67,159],[61,111],[-60,79],[27,101],[-69,42],[10,122],[-35,145],[-110,161],[33,153],[-38,155],[-81,53],[-20,177],[-132,61],[-90,198],[-324,-106],[-256,29],[-34,170],[-228,-46],[-214,-189],[-160,491],[-133,6],[-80,-44],[-176,32],[-82,-35],[-144,523],[-13,245],[416,148],[-102,235],[-176,200],[-151,80],[2,109],[-140,549],[233,231],[341,-48],[60,334],[-10,241],[79,379]],[[34370,44859],[383,-218],[-939,-1350],[-76,-229],[24,-120],[71,-102],[-156,-122],[19,-73],[295,-103],[-76,-145],[135,-117],[210,-237],[10,-234],[153,-56],[44,-137],[-87,-160],[-14,-230],[135,-320],[2,-221],[129,-57],[-5,-108],[256,-315],[87,-57]],[[31063,55393],[364,277],[228,337],[89,219],[43,209],[-126,218],[8,329],[-57,116],[11,159],[57,113],[-59,202],[-71,54],[33,181],[72,184],[-284,115],[-272,-131],[-87,30],[-29,112],[94,65],[-21,240],[57,66],[277,101],[-79,105],[-228,91],[-98,80],[112,130],[140,22],[183,-116],[92,-8],[204,-140],[71,38],[-28,148],[-181,210],[-5,116],[-171,-78],[-204,37],[-27,175],[109,123],[105,49],[18,117],[143,63],[75,78],[254,107],[70,121],[13,148],[-132,-6],[-85,127],[-370,58],[-230,164],[-65,85],[-119,40],[-82,-43],[-293,-41],[-192,100],[-164,176],[-124,70],[-303,-68],[-65,40],[135,224],[-37,79],[51,147],[2,197],[67,109],[446,280],[199,-13],[11,142],[152,92],[75,-102],[-53,-144],[26,-242],[189,-218],[96,30],[178,314],[182,132],[82,228],[102,187],[78,37],[192,-39],[80,223],[20,208],[191,250],[19,215],[170,33],[93,164],[8,79],[230,242],[-194,127],[220,312],[-174,204],[111,272],[-101,21],[-12,273],[114,71],[132,154],[84,219],[-14,222],[-110,95],[181,392],[8,216],[-30,63],[140,188],[3,55],[160,94],[-37,229],[-5,248],[143,111],[81,110],[18,124],[184,126],[260,78],[200,27],[279,106],[150,118],[134,64],[254,66],[-17,176],[138,63],[-20,139],[51,162],[-77,88],[198,136],[13,248],[-1544,582],[14,436]],[[8061,47248],[25,-171],[-29,-255],[-85,-128],[-15,-156],[-55,-90],[-127,-56],[101,-83],[-110,-105]],[[448,42993],[439,2074],[-422,1014]],[[64592,16208],[61,-92],[316,147],[95,109],[218,35],[54,-209],[119,-67],[104,36],[211,-202],[75,83],[99,-63],[187,20],[255,-78]],[[56713,5336],[-404,220],[-1705,951],[-2736,1522],[-1413,786],[-2008,1115],[-157,320],[144,-37],[-49,240],[-63,96],[-32,215],[-96,206],[-154,-29],[-78,245],[-50,63],[-185,34],[-90,83],[-308,33],[-283,228],[-126,-1],[-250,-136],[-301,-69],[-158,32],[-38,51],[213,287],[59,15],[-15,196],[-72,53],[-122,-16],[-155,47],[-138,-30],[-6,216],[423,374],[564,438],[211,20],[55,56],[6,275],[206,-30],[111,80],[10,81],[-203,1072],[-35,240]],[[85367,22006],[-471,-227],[-163,-95],[-235,-182],[-312,-294],[-420,-218],[-478,102],[-83,60],[-326,85],[-233,30],[-235,-4],[-369,-50],[-430,-102],[-628,-216],[-561,-237],[-571,-307],[-427,-286],[-273,-217],[-220,-206],[-301,-377],[-133,11],[-59,103]],[[8351,57743],[395,88],[106,76],[223,57],[211,108],[120,104],[69,138],[395,79],[726,55],[115,-26],[174,51],[132,-19],[158,95],[143,190],[38,114]],[[11356,58853],[1088,214],[-23,-311],[424,12],[384,-51],[304,106],[233,-33],[160,-215],[227,-176],[-94,-113],[319,-230],[108,-15],[179,-112],[43,145],[356,49],[110,-35],[331,154]],[[18107,55718],[-134,-234],[-239,124],[-278,-389],[-58,-10],[-188,253],[-109,19],[-113,148],[-222,52],[-171,-83],[-143,-112],[-103,-14],[-319,61],[-233,-54],[-111,24],[-279,-46],[-195,18],[-14,-65],[-134,-64],[-33,-252]],[[23436,62757],[-49,80],[-123,18],[-161,77],[-256,52],[-225,109],[-138,108],[-451,221],[-54,78],[-140,26],[-121,83],[-356,85],[-140,6],[-180,126],[-152,-39],[-204,0],[-219,63],[-305,-9],[-100,47],[-178,-32],[-238,301],[-85,29],[-41,169],[53,52],[-41,135],[-164,55],[-190,157],[-922,691],[92,207],[155,65],[30,99],[-631,2008],[-355,981],[-38,136],[-57,461],[-5,237],[-47,480],[-70,214],[-73,78],[-244,88],[-272,24],[-60,55],[-204,39],[-75,97],[-36,194],[-63,174],[-32,459],[-325,287],[-106,263],[-262,301],[-322,166],[-239,74],[-206,-71],[-209,-119],[-43,-72],[-117,-45],[-90,-147],[-37,-194],[23,-134],[-56,-137],[-190,-258],[-238,-246],[-50,-112],[50,-96],[-5,-291],[79,-259],[-692,116],[-228,107],[-85,-4]],[[12923,70670],[99,42],[7,143],[-73,-2],[-128,240],[-67,174],[-243,2],[-105,319],[-75,353],[-62,79],[-171,-37],[-14,-163],[-135,-19],[-190,126],[-186,204],[-100,171],[-390,337],[-115,283],[-181,143],[113,509],[-32,186],[-88,306],[-100,226],[-80,63],[-130,-30],[-157,284],[-313,105],[-123,123],[-125,-151],[-283,14],[-200,34],[-167,396],[-511,181],[-132,554],[0,213],[-161,214],[-25,313],[30,263],[-37,205],[-175,118],[-165,240],[-116,64],[-320,73],[-218,-79],[-124,228],[-156,81],[-140,20],[-68,81],[28,184],[-67,260],[-48,535],[-110,238],[-152,380],[-173,171],[-146,89],[-20,68],[18,370],[118,24],[97,155],[-17,180],[-143,177],[-177,132],[59,64],[343,26],[133,67],[208,210],[67,597],[-35,317],[128,571],[-111,73],[-407,117],[-226,41],[-45,129],[-282,252],[-95,37],[-203,11],[-370,-84],[-210,-149],[-313,199],[-200,158],[-93,171],[-170,188],[-173,-33],[-145,25],[-348,-107],[-255,-58],[-90,88],[325,59],[-19,123],[-178,58],[-160,-34],[-123,101],[141,40],[202,198],[460,6],[106,-14],[4,196],[-125,306],[-97,17],[-401,-29],[-100,-92],[-233,-9],[-272,23],[-496,-97],[35,228],[298,117],[55,55],[125,318],[73,257],[-383,175],[-305,256],[-240,55],[-28,184],[381,96],[34,90],[6,219],[-143,166],[-218,79],[-167,272],[202,210],[-228,357],[-114,87],[-583,357],[1861,1426],[1116,873],[938,721],[1088,845],[1011,776],[335,230],[1192,782],[1336,925],[1498,1009],[775,527],[691,456],[2335,1532],[1759,1689],[1986,4],[2266,2],[108,-153],[102,-83],[106,-151],[165,66],[172,9],[281,58],[332,-50],[138,11],[111,-68],[-4,-81],[191,37],[140,-23],[428,-228],[97,-2],[238,-70],[182,54],[84,-28],[29,-105],[100,-115],[0,-133],[98,-111],[-37,-93],[-103,-93],[-85,-317],[57,-153],[103,-123],[85,-287],[-37,-99],[39,-131],[-30,-307],[-97,-420],[-48,-438],[5,-316],[-70,-396],[-12,-383],[95,-55],[218,-44],[205,-103],[247,-287],[90,-341],[83,-436],[62,-705],[85,-463],[-12,-251],[18,-254],[345,-125],[-30,-41],[-103,-347],[35,-81],[263,-46],[7,-115],[-260,-174],[695,-490],[651,-424],[-2,-36]],[[67636,81020],[174,12],[26,-195],[-59,-144],[346,12],[370,-11],[169,-28],[137,20],[216,-107],[416,22],[111,48],[147,-19],[106,70],[71,-20],[212,-548],[216,-73],[273,-23],[447,875],[236,132],[1860,1516],[129,55],[81,85],[148,266]],[[88551,67934],[16,-33],[-14,-1731],[-1,-565],[22,-2607],[-13,-1881],[0,-1836],[2,-2809],[-47,-24],[35,-3062],[10,-175],[10,-2276]],[[11356,58853],[129,73],[-19,403],[-245,247],[-300,330],[-116,193],[34,102],[320,271],[192,80],[101,123],[112,54],[148,16],[96,241],[-22,184],[113,324],[324,269],[198,-24],[213,96],[262,150],[211,278],[383,598],[103,815],[19,898],[341,825],[-436,435],[-114,146],[-39,711],[-414,1463],[-346,1662],[-78,335],[33,217],[186,70],[93,170],[85,62]]],"transform":{"scale":[7.99391560615616e-05,0.00010090616043160443],"translate":[33.912185792,-4.676391601999967]},"objects":{"ken_adm1":{"type":"GeometryCollection","geometries":[{"arcs":[[0,1,2,3,4,5,6,7]],"type":"Polygon","properties":{"admin1_name":"Baringo","admin1_pcode":"KE030","area_sqkm":10889.23931267,"gaul1_code":1353}},{"arcs":[[8,9,10,11]],"type":"Polygon","properties":{"admin1_name":"Bomet","admin1_pcode":"KE036","area_sqkm":2438.21972707,"gaul1_code":1354}},{"arcs":[[12,13,14,15]],"type":"Polygon","properties":{"admin1_name":"Bungoma","admin1_pcode":"KE039","area_sqkm":3016.17422882,"gaul1_code":1355}},{"arcs":[[-14,16,17,18]],"type":"Polygon","properties":{"admin1_name":"Busia","admin1_pcode":"KE040","area_sqkm":1811.57169334,"gaul1_code":1356}},{"arcs":[[-7,19,20,21]],"type":"Polygon","properties":{"admin1_name":"Elgeyo-Marakwet","admin1_pcode":"KE028","area_sqkm":3008.39118365,"gaul1_code":1357}},{"arcs":[[22,23,24,25]],"type":"Polygon","properties":{"admin1_name":"Embu","admin1_pcode":"KE014","area_sqkm":2823.70595668,"gaul1_code":1358}},{"arcs":[[26,27,28,29,30]],"type":"Polygon","properties":{"admin1_name":"Garissa","admin1_pcode":"KE007","area_sqkm":43596.12807522,"gaul1_code":1359}},{"arcs":[[31,32,33,34,35,36,37]],"type":"Polygon","properties":{"admin1_name":"Homa Bay","admin1_pcode":"KE043","area_sqkm":4731.93411291,"gaul1_code":1360}},{"arcs":[[-30,38,39,40,41,42,43]],"type":"Polygon","properties":{"admin1_name":"Isiolo","admin1_pcode":"KE011","area_sqkm":25399.32883144,"gaul1_code":1361}},{"arcs":[[44,45,46,47,48,49,50,51]],"type":"Polygon","properties":{"admin1_name":"Kajiado","admin1_pcode":"KE034","area_sqkm":21884.84021382,"gaul1_code":1362}},{"arcs":[[-13,52,53,54,55,56,-17]],"type":"Polygon","properties":{"admin1_name":"Kakamega","admin1_pcode":"KE037","area_sqkm":3008.0192847,"gaul1_code":1363}},{"arcs":[[-5,57,-11,58,-32,59,60,61]],"type":"Polygon","properties":{"admin1_name":"Kericho","admin1_pcode":"KE035","area_sqkm":2513.21074587,"gaul1_code":1364}},{"arcs":[[-51,62,63,64,65,66]],"type":"Polygon","properties":{"admin1_name":"Kiambu","admin1_pcode":"KE022","area_sqkm":2542.97165236,"gaul1_code":1365}},{"arcs":[[67,68,69,70,71,72,73]],"type":"Polygon","properties":{"admin1_name":"Kilifi","admin1_pcode":"KE003","area_sqkm":12599.27979682,"gaul1_code":1366}},{"arcs":[[-25,74,75]],"type":"Polygon","properties":{"admin1_name":"Kirinyaga","admin1_pcode":"KE020","area_sqkm":1475.2818936,"gaul1_code":1367}},{"arcs":[[-34,76,77,78]],"type":"Polygon","properties":{"admin1_name":"Kisii","admin1_pcode":"KE045","area_sqkm":1313.73442294,"gaul1_code":1368}},{"arcs":[[-38,79,80,81,-60]],"type":"Polygon","properties":{"admin1_name":"Kisumu","admin1_pcode":"KE042","area_sqkm":2665.03604841,"gaul1_code":1369}},{"arcs":[[-23,82,83,84,85,86,87]],"type":"Polygon","properties":{"admin1_name":"Kitui","admin1_pcode":"KE015","area_sqkm":30456.88378034,"gaul1_code":1370}},{"arcs":[[[-72,88,89,90,91,92]],[[93]],[[94]],[[95]]],"type":"MultiPolygon","properties":{"admin1_name":"Kwale","admin1_pcode":"KE002","area_sqkm":8266.02617419,"gaul1_code":1371}},{"arcs":[[-3,96,-41,97,98,99,100]],"type":"Polygon","properties":{"admin1_name":"Laikipia","admin1_pcode":"KE031","area_sqkm":9536.92035995,"gaul1_code":1372}},{"arcs":[[[-28,101,102]],[[103]],[[104]],[[105]],[[106]]],"type":"MultiPolygon","properties":{"admin1_name":"Lamu","admin1_pcode":"KE005","area_sqkm":6047.02159724,"gaul1_code":1373}},{"arcs":[[-24,-88,107,-45,108,-66,109]],"type":"Polygon","properties":{"admin1_name":"Machakos","admin1_pcode":"KE016","area_sqkm":6044.25873632,"gaul1_code":1374}},{"arcs":[[-46,-108,-87,110]],"type":"Polygon","properties":{"admin1_name":"Makueni","admin1_pcode":"KE017","area_sqkm":8174.85320364,"gaul1_code":1375}},{"arcs":[[111,112]],"type":"Polygon","properties":{"admin1_name":"Mandera","admin1_pcode":"KE009","area_sqkm":25979.27364387,"gaul1_code":1376}},{"arcs":[[-43,113,114,115,116]],"type":"Polygon","properties":{"admin1_name":"Marsabit","admin1_pcode":"KE010","area_sqkm":76027.83639264,"gaul1_code":1377}},{"arcs":[[-40,-84,117,118,-98]],"type":"Polygon","properties":{"admin1_name":"Meru","admin1_pcode":"KE012","area_sqkm":6992.54345554,"gaul1_code":1378}},{"arcs":[[-35,-79,119,120]],"type":"Polygon","properties":{"admin1_name":"Migori","admin1_pcode":"KE044","area_sqkm":3144.29879206,"gaul1_code":1379}},{"arcs":[[[-69,121]],[[-71,122,123,-89]],[[-91,124]],[[125]]],"type":"MultiPolygon","properties":{"admin1_name":"Mombasa","admin1_pcode":"KE001","area_sqkm":233.60818773,"gaul1_code":1380}},{"arcs":[[-65,126,127,-75,-110]],"type":"Polygon","properties":{"admin1_name":"Murang'a","admin1_pcode":"KE021","area_sqkm":2525.49493163,"gaul1_code":1381}},{"arcs":[[-52,-67,-109]],"type":"Polygon","properties":{"admin1_name":"Nairobi","admin1_pcode":"KE047","area_sqkm":707.54232376,"gaul1_code":1382}},{"arcs":[[-55,128,-61,-82,129]],"type":"Polygon","properties":{"admin1_name":"Nandi","admin1_pcode":"KE029","area_sqkm":2835.78654137,"gaul1_code":1384}},{"arcs":[[-9,130,-49,131,-120,-78]],"type":"Polygon","properties":{"admin1_name":"Narok","admin1_pcode":"KE033","area_sqkm":17912.18466122,"gaul1_code":1385}},{"arcs":[[-10,-77,-33,-59]],"type":"Polygon","properties":{"admin1_name":"Nyamira","admin1_pcode":"KE046","area_sqkm":897.15283946,"gaul1_code":1386}},{"arcs":[[-64,132,-100,133,-127]],"type":"Polygon","properties":{"admin1_name":"Nyandarua","admin1_pcode":"KE018","area_sqkm":3266.72590983,"gaul1_code":1387}},{"arcs":[[-76,-128,-134,-99,-119]],"type":"Polygon","properties":{"admin1_name":"Nyeri","admin1_pcode":"KE019","area_sqkm":3334.57237788,"gaul1_code":1388}},{"arcs":[[-2,134,-114,-42,-97]],"type":"Polygon","properties":{"admin1_name":"Samburu","admin1_pcode":"KE025","area_sqkm":21015.66964537,"gaul1_code":1389}},{"arcs":[[-18,-57,135,-80,-37,136]],"type":"Polygon","properties":{"admin1_name":"Siaya","admin1_pcode":"KE041","area_sqkm":3520.4349196,"gaul1_code":1390}},{"arcs":[[-47,-111,-86,137,-73,-93,138]],"type":"Polygon","properties":{"admin1_name":"Taita Taveta","admin1_pcode":"KE006","area_sqkm":17131.06393654,"gaul1_code":1391}},{"arcs":[[-29,-103,139,-74,-138,-85,-39]],"type":"Polygon","properties":{"admin1_name":"Tana River","admin1_pcode":"KE004","area_sqkm":39192.09311281,"gaul1_code":1392}},{"arcs":[[-26,-118,-83]],"type":"Polygon","properties":{"admin1_name":"Tharaka-Nithi","admin1_pcode":"KE013","area_sqkm":2580.98389939,"gaul1_code":1393}},{"arcs":[[-16,140,141,-21,142,-53]],"type":"Polygon","properties":{"admin1_name":"Trans Nzoia","admin1_pcode":"KE026","area_sqkm":2484.70398507,"gaul1_code":1394}},{"arcs":[[-1,143,144,-115,-135]],"type":"Polygon","properties":{"admin1_name":"Turkana","admin1_pcode":"KE023","area_sqkm":70131.7589079,"gaul1_code":1395}},{"arcs":[[-6,-62,-129,-54,-143,-20]],"type":"Polygon","properties":{"admin1_name":"Uasin Gishu","admin1_pcode":"KE027","area_sqkm":3396.83909229,"gaul1_code":1396}},{"arcs":[[-56,-130,-81,-136]],"type":"Polygon","properties":{"admin1_name":"Vihiga","admin1_pcode":"KE038","area_sqkm":560.46853377,"gaul1_code":1397}},{"arcs":[[-31,-44,-117,145,-112,146]],"type":"Polygon","properties":{"admin1_name":"Wajir","admin1_pcode":"KE008","area_sqkm":56668.58927992,"gaul1_code":1398}},{"arcs":[[-8,-22,-142,147,-144]],"type":"Polygon","properties":{"admin1_name":"West Pokot","admin1_pcode":"KE024","area_sqkm":9305.51007437,"gaul1_code":1399}},{"arcs":[[-4,-101,-133,-63,-50,-131,-12,-58]],"type":"Polygon","properties":{"admin1_name":"Nakuru","admin1_pcode":"KE032","area_sqkm":7487.07246916,"gaul1_code":1383}}]}}}