{"type":"Topology","arcs":[[[5634,54018],[189,196],[458,149],[-82,176],[235,244],[210,51],[96,280],[-7,117],[175,126],[190,289],[120,415],[-14,260],[71,340],[129,279],[127,102],[82,173],[123,68],[548,-44],[67,478],[395,89],[106,75],[223,58],[331,211],[69,138],[395,80],[1015,80],[132,-20],[158,95],[181,305],[129,73],[-19,404],[-545,577],[-116,192],[34,102],[320,272],[192,80],[101,123],[260,70],[96,242],[-22,183],[113,324],[324,270],[198,-24],[475,246],[211,278],[383,599],[103,815],[19,898],[341,826],[-436,435],[-114,147],[-39,711],[-414,1463],[-346,1663],[-78,336],[33,217],[186,70],[178,232],[99,42],[-261,555],[-243,2],[-105,320],[-75,353],[-62,79],[-171,-38],[-14,-162],[-135,-20],[-190,127],[-186,204],[-100,171],[-390,337],[-115,283],[-181,143],[113,510],[-120,492],[-100,226],[-210,34],[-157,283],[-313,105],[-123,124],[-125,-151],[-483,47],[-167,397],[-511,181],[-132,555],[0,212],[-161,214],[-25,314],[30,263],[-37,205],[-175,118],[-165,240],[-116,64],[-320,73],[-218,-79],[-124,228],[-296,101],[-68,81],[28,185],[-67,260],[-48,535],[-262,619],[-339,327],[18,371],[118,24],[97,155],[-17,180],[-143,177],[-177,132],[59,64],[343,26],[133,67],[208,210],[67,598],[-35,317],[128,571],[-111,73],[-633,159],[-45,129],[-282,252],[-298,47],[-370,-83],[-210,-149],[-513,357],[-93,171],[-170,188],[-318,-8],[-603,-165],[-90,88],[325,60],[-19,122],[-178,58],[-142,107],[202,199],[566,-9],[4,197],[-125,305],[-498,-12],[-100,-91],[-505,14],[-496,-98],[35,229],[353,172],[198,576],[-383,174],[-305,256],[-240,55],[-28,185],[381,95],[40,310],[-143,166],[-218,79],[-167,272],[202,210],[-228,357],[-697,444],[1861,1428],[1116,873],[2026,1567],[1011,777],[335,230],[1192,782],[1336,926],[2273,1537],[3026,1989],[1759,1690],[1986,4],[2266,2],[316,-387],[165,66],[453,67],[332,-50],[576,-125],[428,-228],[335,-71],[182,54],[213,-248],[0,-134],[98,-110],[-140,-187],[-85,-317],[160,-276],[85,-287],[-28,-538],[-97,-420],[-48,-439],[5,-315],[-70,-396],[-12,-384],[313,-99],[205,-103],[247,-287],[90,-341],[83,-437],[62,-706],[85,-462],[6,-505],[345,-126],[-133,-388],[35,-81],[263,-46],[7,-115],[-260,-175],[695,-489],[651,-425],[-2,-36],[2290,-2],[161,60],[224,-66],[1704,-27],[1833,-36],[984,99],[240,-4],[208,-118],[237,-7],[2047,82],[448,-176],[376,-72],[617,-210],[339,-81],[218,-166],[216,-66],[121,99],[304,-159],[131,-186],[300,-33],[299,-368],[288,-113],[1296,-663],[1917,-991],[450,-218],[897,-469],[1073,-617],[574,-297],[334,-210],[598,-328],[164,-72],[600,-327],[424,-209],[1353,-706],[109,-66],[931,-413],[186,-28],[133,-229],[360,-301],[154,-66],[667,-426],[202,-175],[682,139],[2849,-145],[453,-34],[933,251],[-16,248],[220,21],[145,-124],[101,-264],[292,-90],[540,-19],[510,-113],[138,159],[-44,117],[173,30],[78,-135],[345,-401],[1487,-355],[117,-14],[709,-200],[676,33],[64,147],[705,-200],[-1,117],[178,40],[245,-66],[286,102],[119,98],[242,-195],[297,-103],[241,-9],[33,-91],[305,-117],[150,21],[77,-131],[364,29],[380,-48],[145,-49],[279,80],[190,-14],[195,202],[174,12],[26,-196],[-59,-143],[346,12],[676,-19],[216,-107],[674,50],[177,50],[212,-548],[216,-73],[273,-23],[447,876],[236,132],[1860,1516],[210,141],[148,266],[1003,1711],[1641,680],[1515,621],[770,308],[128,148],[184,-37],[1742,556],[518,178],[3907,1251],[150,94],[228,0],[202,119],[189,187],[299,-13],[103,-128],[140,-19],[256,-129],[326,-56],[67,-185],[187,-16],[217,-156],[7,-182],[145,-92],[79,-236],[263,-105],[233,-10],[626,-347],[289,-209],[46,-102],[261,-52],[116,-195],[244,-182],[18,-109],[224,-138],[188,-63],[-38,-137],[188,-39],[196,-139],[-7,-71],[820,-309],[247,180],[191,4],[114,58],[171,-71],[94,34],[408,-83],[283,-13],[96,-51],[327,80],[43,109],[276,-77],[62,82],[198,41],[280,-149],[232,8],[231,89],[143,-39],[175,59],[302,14],[98,-78],[149,180],[235,108],[248,-132],[358,4],[302,32],[200,109],[272,-192],[199,8],[415,196],[205,32],[411,-69],[-8,-83],[305,14],[200,56],[74,-236],[245,3],[10,-79],[277,34],[153,-32],[540,295],[100,-62],[-592,-659],[-410,-495],[-379,-398],[-1457,-1657],[-1039,-1165],[-390,-448],[-1015,-1134],[-175,-215],[-1691,-1908],[-94,-96],[-1004,-784],[-1503,-1154],[-1036,-801],[-626,-494],[4,-315],[-16,-2243],[10,-682],[-10,-2540],[-25,-632],[16,-33],[-15,-2298],[22,-2609],[-13,-1882],[0,-1836],[2,-2812],[-47,-24],[35,-3064],[10,-174],[10,-2278],[8,-1588],[0,-2981],[0,-3305],[-1,-4940],[1444,-1545],[1391,-1504],[4255,-4539],[35,-48],[-2,-579],[-660,-45],[218,-67],[-438,-317],[-330,-399],[-178,-117],[-473,-441],[-200,-144],[-62,-159],[-258,-187],[-230,-313],[-433,-346],[-361,-413],[-170,-49],[-52,-95],[-203,-121],[-37,412],[-161,50],[-159,-136],[-55,108],[112,113],[-17,109],[-163,-26],[-28,156],[-223,78],[-182,-60],[-60,-95],[-423,-218],[-5,-91],[-423,-238],[-157,25],[-296,-64],[-247,-128],[2,-236],[-312,-364],[-190,-53],[-90,166],[-186,-43],[-117,166],[74,85],[-180,97],[61,407],[-100,118],[327,306],[38,83],[403,182],[57,91],[-63,116],[-320,-241],[-170,-1],[-85,-128],[-162,-93],[-6,-123],[-180,-49],[-87,-101],[87,-409],[-155,-143],[-312,-116],[-201,170],[-455,42],[-47,111],[-216,82],[-137,109],[-431,54],[-167,-65],[277,-95],[153,-108],[153,9],[343,-199],[-53,-115],[240,-73],[245,76],[65,-61],[-47,-298],[-168,108],[-65,-201],[102,-160],[136,-11],[152,-176],[-12,-325],[92,-361],[-29,-163],[57,-362],[-235,28],[-128,95],[-162,-29],[-3,-183],[-242,-147],[-373,89],[-260,-77],[-273,-222],[-270,106],[-33,-76],[-468,211],[75,-428],[-360,-61],[63,-264],[217,-22],[48,59],[393,-126],[7,-110],[152,-286],[-19,-211],[117,-34],[215,374],[251,-115],[95,-140],[-5,-169],[-488,-308],[-176,-177],[-49,-138],[-211,12],[-179,-55],[-634,-322],[-235,-183],[-312,-294],[-420,-218],[-478,102],[-83,60],[-326,85],[-468,26],[-369,-51],[-430,-102],[-628,-215],[-561,-238],[-571,-307],[-427,-286],[-493,-423],[-301,-377],[-133,11],[-59,102],[34,-104],[119,-102],[-132,-319],[8,-435],[-159,-353],[18,-312],[-122,-397],[12,-228],[302,-355],[296,-75],[211,135],[132,-85],[-238,-140],[-177,-36],[-138,-149],[-11,-96],[-263,-114],[-56,-128],[54,-156],[-213,-126],[-11,-71],[94,-387],[-238,-343],[-253,-270],[-49,-156],[109,-177],[-39,-211],[80,-86],[-149,-336],[-172,-129],[-411,-172],[-263,-174],[-156,-52],[-268,-165],[-61,9],[-485,-306],[-58,116],[137,84],[193,24],[-174,307],[51,94],[-179,43],[-275,-96],[50,-110],[-226,-89],[78,-270],[283,-134],[32,-120],[-144,-264],[-386,-617],[-62,-224],[-180,-399],[-304,-543],[-211,-270],[-251,31],[-198,118],[-169,155],[-208,11],[103,-214],[-176,-17],[50,-130],[178,-59],[312,157],[312,-90],[74,-138],[-21,-212],[52,-214],[-155,-274],[-171,-392],[-187,-574],[-245,-430],[-295,-437],[-133,-297],[-119,-116],[-170,-54],[-217,83],[-208,-27],[-122,78],[-94,201],[-130,-13],[225,-283],[234,-22],[99,45],[204,-77],[31,-92],[-281,-297],[-11,-191],[-343,-390],[-231,-59],[-104,317],[-187,99],[119,167],[-110,362],[-197,151],[24,-87],[167,-265],[-166,-2],[-113,110],[-284,-129],[240,-83],[54,-234],[-5,-176]],[[71646,6270],[-165,-56],[-144,34],[-389,-23],[29,134],[-228,92],[-45,69],[2,-93],[159,-75],[24,-128],[-3,-440],[74,-157],[-42,-96],[137,67],[-91,152],[17,144],[105,86],[319,95],[263,-78],[90,-80],[304,-72],[18,-102],[-394,-609],[-165,-253],[-183,-207],[-213,-562],[-16,-151],[-229,-401],[-372,-776],[-79,-321],[-150,171],[-252,-77],[-25,-290],[-148,-112],[9,-128],[-207,-142],[-177,-348],[-107,-48],[-193,85],[-230,-32],[58,-94],[-135,-71],[-61,-133],[-262,-64],[-143,104],[-70,-121],[120,-45],[52,-122],[198,-210],[-155,-59],[78,-261],[104,-175],[-267,-56],[-480,106],[-190,-37],[-238,57],[-55,95],[175,149],[-93,276],[73,134],[-308,5],[-208,-154],[-225,22],[-120,-52],[-55,-127],[-278,-124],[-22,-140],[-95,-88],[-63,-270],[-120,-45],[-420,245],[-573,303],[-1517,846],[-2444,1355],[-2469,1367],[-2028,1120],[-2109,1172],[-2736,1523],[-1413,786],[-2008,1116],[-157,320],[144,-37],[-49,240],[-63,96],[-32,215],[-96,207],[-154,-30],[-128,309],[-185,34],[-90,83],[-308,32],[-283,229],[-126,-1],[-250,-136],[-301,-70],[-196,83],[213,288],[44,212],[-349,83],[-138,-29],[-6,215],[423,375],[564,438],[266,76],[6,275],[206,-30],[121,161],[-203,1073],[-35,240],[-24,35],[-229,1119],[-1152,618],[-949,477],[-2781,1227],[-1785,797],[-1644,739],[-129,52],[-3088,1381],[-603,239],[-2656,1198],[-3349,1495],[-2777,1239],[-3249,1445],[-3095,1390],[-1534,678],[-1405,631],[-720,308],[-2290,1042],[-1074,476],[-2510,1127],[-5,21],[-2204,984],[-489,242],[-594,245],[-1157,522],[-1853,828],[-1829,818],[-437,-234],[-221,107],[-18,224],[-124,96],[-1039,2],[-101,1937],[-19,605],[-91,1745],[38,155],[53,855],[100,470],[196,797],[439,2076],[-422,1014],[-462,1252],[-3,101],[1362,1446],[46,134],[195,75],[215,439],[213,36],[320,226],[114,183],[18,122],[-106,349],[-165,137],[8,306],[370,258],[-22,386],[112,166],[12,179],[145,269],[165,31],[188,147],[203,40],[185,199],[204,-8],[69,58],[188,-34],[187,29],[331,112],[10,363],[450,210],[-77,200],[47,320],[54,113],[394,101],[199,25]],[[69339,1115],[-70,-239],[-162,-56],[-51,242],[158,50],[23,154],[187,65],[-85,-216]],[[68131,158],[370,-48],[148,28],[29,-138],[-200,35],[-425,-5],[78,128]],[[89960,25956],[200,-58],[225,-151],[58,56],[262,-115],[-152,-172],[-138,12],[-57,115],[-288,39],[-223,-192],[168,-136],[-27,-107],[92,-87],[-247,-72],[-126,109],[-335,-73],[-58,24],[3,224],[-258,-18],[-310,-155],[20,-117],[-290,73],[-23,132],[-145,119],[233,71],[358,-10],[332,155],[223,20],[172,66],[68,228],[263,20]],[[87266,24037],[159,-165],[180,-298],[-65,-50],[-302,28],[-370,-99],[-396,-258],[-120,-16],[-5,396],[360,325],[431,37],[128,100]],[[88473,23969],[38,-56],[-220,-226],[-145,-236],[-210,-117],[-208,-26],[-137,152],[255,138],[-310,358],[-90,215],[162,69],[328,-208],[67,142],[318,-170],[152,-35]],[[71646,6270],[260,102],[175,-83],[98,-329],[-194,-78],[-164,153],[-175,235]]],"transform":{"scale":[0.0000799391560615616,0.00010084451430514276],"translate":[33.912185792,-4.670227050999927]},"objects":{"ken_adm1":{"type":"GeometryCollection","geometries":[{"arcs":[[[0,1]],[[2]],[[3]],[[4]],[[5]],[[6]],[[7]]],"type":"MultiPolygon","properties":{"iso3":"KEN","admin0_name":"Kenya"}}]}}}